{
  "type": "FeatureCollection",
  "features": [
    {
      "type": "Feature",
      "properties": {
        "norad_id": 66617,
        "name": "STARLINK-35940",
        "group": "last-30-days",
        "lat": -10.132855568466459,
        "lon": -8.793809273635809,
        "alt_km": 448.8277142920733,
        "timestamp": "2025-12-17T17:50:17.972990+00:00",
        "meta_object_name": "STARLINK-35940",
        "meta_object_id": "2025-271A",
        "meta_epoch": "2025-12-17T08:00:04.999680",
        "meta_mean_motion": 15.39598696,
        "meta_eccentricity": 0.00015966,
        "meta_inclination": 53.1582,
        "meta_ra_of_asc_node": 165.4375,
        "meta_arg_of_pericenter": 124.4839,
        "meta_mean_anomaly": 315.0402,
        "meta_ephemeris_type": 0,
        "meta_classification_type": "U",
        "meta_norad_cat_id": 66617,
        "meta_element_set_no": 999,
        "meta_rev_at_epoch": 498,
        "meta_bstar": 0.0016466872,
        "meta_mean_motion_dot": 0.00065993,
        "meta_mean_motion_ddot": 0,
        "tle_line1": "1 66617U 25271A   25351.33339120  .00065993  00000+0  16467-2 0  9990",
        "tle_line2": "2 66617  53.1582 165.4375 0001596 124.4839 315.0402 15.39598696  4982"
      },
      "geometry": {
        "type": "Point",
        "coordinates": [
          -8.793809273635809,
          -10.132855568466459
        ]
      }
    },
    {
      "type": "Feature",
      "properties": {
        "norad_id": 66618,
        "name": "STARLINK-35970",
        "group": "last-30-days",
        "lat": -12.158808048680767,
        "lon": 153.89957738084703,
        "alt_km": 420.835057520786,
        "timestamp": "2025-12-17T17:50:17.973001+00:00",
        "meta_object_name": "STARLINK-35970",
        "meta_object_id": "2025-271B",
        "meta_epoch": "2025-12-17T02:25:19.323840",
        "meta_mean_motion": 15.49300114,
        "meta_eccentricity": 0.000119,
        "meta_inclination": 53.1595,
        "meta_ra_of_asc_node": 166.2678,
        "meta_arg_of_pericenter": 58.6404,
        "meta_mean_anomaly": 301.4722,
        "meta_ephemeris_type": 0,
        "meta_classification_type": "U",
        "meta_norad_cat_id": 66618,
        "meta_element_set_no": 999,
        "meta_rev_at_epoch": 488,
        "meta_bstar": 0.00036669007,
        "meta_mean_motion_dot": 0.00019991,
        "meta_mean_motion_ddot": 0,
        "tle_line1": "1 66618U 25271B   25351.10091810  .00019991  00000+0  36669-3 0  9991",
        "tle_line2": "2 66618  53.1595 166.2678 0001190  58.6404 301.4722 15.49300114  4888"
      },
      "geometry": {
        "type": "Point",
        "coordinates": [
          153.89957738084703,
          -12.158808048680767
        ]
      }
    },
    {
      "type": "Feature",
      "properties": {
        "norad_id": 66619,
        "name": "STARLINK-35951",
        "group": "last-30-days",
        "lat": -44.17598584328399,
        "lon": 116.53078150555264,
        "alt_km": 423.25505680498645,
        "timestamp": "2025-12-17T17:50:17.973013+00:00",
        "meta_object_name": "STARLINK-35951",
        "meta_object_id": "2025-271C",
        "meta_epoch": "2025-12-16T21:58:24.504960",
        "meta_mean_motion": 15.49328286,
        "meta_eccentricity": 6.112e-05,
        "meta_inclination": 53.1589,
        "meta_ra_of_asc_node": 167.25,
        "meta_arg_of_pericenter": 87.2162,
        "meta_mean_anomaly": 272.8917,
        "meta_ephemeris_type": 0,
        "meta_classification_type": "U",
        "meta_norad_cat_id": 66619,
        "meta_element_set_no": 999,
        "meta_rev_at_epoch": 485,
        "meta_bstar": 0.0012615203,
        "meta_mean_motion_dot": 0.00070395,
        "meta_mean_motion_ddot": 0,
        "tle_line1": "1 66619U 25271C   25350.91556140  .00070395  00000+0  12615-2 0  9991",
        "tle_line2": "2 66619  53.1589 167.2500 0000611  87.2162 272.8917 15.49328286  4857"
      },
      "geometry": {
        "type": "Point",
        "coordinates": [
          116.53078150555264,
          -44.17598584328399
        ]
      }
    },
    {
      "type": "Feature",
      "properties": {
        "norad_id": 66620,
        "name": "STARLINK-35936",
        "group": "last-30-days",
        "lat": -47.178482648750176,
        "lon": 109.30388190444096,
        "alt_km": 423.69489730448095,
        "timestamp": "2025-12-17T17:50:17.973024+00:00",
        "meta_object_name": "STARLINK-35936",
        "meta_object_id": "2025-271D",
        "meta_epoch": "2025-12-17T02:38:34.431072",
        "meta_mean_motion": 15.49318301,
        "meta_eccentricity": 0.00013282,
        "meta_inclination": 53.1595,
        "meta_ra_of_asc_node": 166.3336,
        "meta_arg_of_pericenter": 61.449,
        "meta_mean_anomaly": 298.6653,
        "meta_ephemeris_type": 0,
        "meta_classification_type": "U",
        "meta_norad_cat_id": 66620,
        "meta_element_set_no": 999,
        "meta_rev_at_epoch": 488,
        "meta_bstar": 0.0012026517,
        "meta_mean_motion_dot": 0.00067036,
        "meta_mean_motion_ddot": 0,
        "tle_line1": "1 66620U 25271D   25351.11012073  .00067036  00000+0  12027-2 0  9993",
        "tle_line2": "2 66620  53.1595 166.3336 0001328  61.4490 298.6653 15.49318301  4880"
      },
      "geometry": {
        "type": "Point",
        "coordinates": [
          109.30388190444096,
          -47.178482648750176
        ]
      }
    },
    {
      "type": "Feature",
      "properties": {
        "norad_id": 66621,
        "name": "STARLINK-35847",
        "group": "last-30-days",
        "lat": -9.225181523243648,
        "lon": 156.19386736992718,
        "alt_km": 419.9614810557641,
        "timestamp": "2025-12-17T17:50:17.973036+00:00",
        "meta_object_name": "STARLINK-35847",
        "meta_object_id": "2025-271E",
        "meta_epoch": "2025-12-17T02:24:23.800608",
        "meta_mean_motion": 15.49319602,
        "meta_eccentricity": 0.00014657,
        "meta_inclination": 53.1596,
        "meta_ra_of_asc_node": 166.2636,
        "meta_arg_of_pericenter": 45.8945,
        "meta_mean_anomaly": 314.2185,
        "meta_ephemeris_type": 0,
        "meta_classification_type": "U",
        "meta_norad_cat_id": 66621,
        "meta_element_set_no": 999,
        "meta_rev_at_epoch": 488,
        "meta_bstar": 0.0012620753,
        "meta_mean_motion_dot": 0.00070405,
        "meta_mean_motion_ddot": 0,
        "tle_line1": "1 66621U 25271E   25351.10027547  .00070405  00000+0  12621-2 0  9999",
        "tle_line2": "2 66621  53.1596 166.2636 0001465  45.8945 314.2185 15.49319602  4887"
      },
      "geometry": {
        "type": "Point",
        "coordinates": [
          156.19386736992718,
          -9.225181523243648
        ]
      }
    },
    {
      "type": "Feature",
      "properties": {
        "norad_id": 66622,
        "name": "STARLINK-35950",
        "group": "last-30-days",
        "lat": -47.01515589200624,
        "lon": 109.74937750794763,
        "alt_km": 428.8538054686105,
        "timestamp": "2025-12-17T17:50:17.973047+00:00",
        "meta_object_name": "STARLINK-35950",
        "meta_object_id": "2025-271F",
        "meta_epoch": "2025-12-17T02:37:18.920928",
        "meta_mean_motion": 15.47448901,
        "meta_eccentricity": 0.00010802,
        "meta_inclination": 53.1594,
        "meta_ra_of_asc_node": 166.3273,
        "meta_arg_of_pericenter": 350.707,
        "meta_mean_anomaly": 9.3918,
        "meta_ephemeris_type": 0,
        "meta_classification_type": "U",
        "meta_norad_cat_id": 66622,
        "meta_element_set_no": 999,
        "meta_rev_at_epoch": 488,
        "meta_bstar": -0.0019576172,
        "meta_mean_motion_dot": -0.0010114,
        "meta_mean_motion_ddot": 0,
        "tle_line1": "1 66622U 25271F   25351.10924677 -.00101140  00000+0 -19576-2 0  9999",
        "tle_line2": "2 66622  53.1594 166.3273 0001080 350.7070   9.3918 15.47448901  4883"
      },
      "geometry": {
        "type": "Point",
        "coordinates": [
          109.74937750794763,
          -47.01515589200624
        ]
      }
    },
    {
      "type": "Feature",
      "properties": {
        "norad_id": 66623,
        "name": "STARLINK-35920",
        "group": "last-30-days",
        "lat": -46.09974287390737,
        "lon": 34.577152506901434,
        "alt_km": 452.24189180624853,
        "timestamp": "2025-12-17T17:50:17.973057+00:00",
        "meta_object_name": "STARLINK-35920",
        "meta_object_id": "2025-271G",
        "meta_epoch": "2025-12-17T08:00:04.999680",
        "meta_mean_motion": 15.39570737,
        "meta_eccentricity": 9.096e-05,
        "meta_inclination": 53.1592,
        "meta_ra_of_asc_node": 165.332,
        "meta_arg_of_pericenter": 110.1527,
        "meta_mean_anomaly": 21.0014,
        "meta_ephemeris_type": 0,
        "meta_classification_type": "U",
        "meta_norad_cat_id": 66623,
        "meta_element_set_no": 999,
        "meta_rev_at_epoch": 498,
        "meta_bstar": 0.0018170608,
        "meta_mean_motion_dot": 0.0007286,
        "meta_mean_motion_ddot": 0,
        "tle_line1": "1 66623U 25271G   25351.33339120  .00072860  00000+0  18171-2 0  9992",
        "tle_line2": "2 66623  53.1592 165.3320 0000909 110.1527  21.0014 15.39570737  4981"
      },
      "geometry": {
        "type": "Point",
        "coordinates": [
          34.577152506901434,
          -46.09974287390737
        ]
      }
    }
  ]
}